start=new Date('2021-10-20T00:00:00.000Z').valueOf();
sats=[{"RA_OF_ASC_NODE":"72.4894","CLASSIFICATION_TYPE":"U","SITE":"AFETR","MEAN_ELEMENT_THEORY":"SGP4","APOAPSIS":"548.216","TIME_SYSTEM":"UTC","OBJECT_NAME":"STARLINK-2544","PERIOD":"95.592","SEMIMAJOR_AXIS":"6925.357","RCS_SIZE":"LARGE","MEAN_MOTION_DOT":"0.00001505","TLE_LINE1":"1 48297U 21036X   21292.86622213  .00001505  00000-0  11990-3 0  9992","INCLINATION":"53.0572","FILE":"3172644","MEAN_MOTION":"15.06397167","EPHEMERIS_TYPE":"0","LAUNCH_DATE":"2021-04-29","GP_ID":"187630270","NORAD_CAT_ID":"48297","PERIAPSIS":"546.228","CENTER_NAME":"EARTH","REV_AT_EPOCH":"2688","ARG_OF_PERICENTER":"91.5032","DECAY_DATE":null,"TLE_LINE2":"2 48297  53.0572  72.4894 0001435  91.5032 268.6122 15.06397167 26887","ELEMENT_SET_NO":"999","BSTAR":"0.00011990000000","ECCENTRICITY":"0.00014350","REF_FRAME":"TEME","MEAN_MOTION_DDOT":"0.0000000000000","MEAN_ANOMALY":"268.6122","OBJECT_ID":"2021-036X","COUNTRY_CODE":"US","OBJECT_TYPE":"PAYLOAD","EPOCH":"2021-10-19T20:47:21.592032"},{"CENTER_NAME":"EARTH","REV_AT_EPOCH":"2685","PERIAPSIS":"546.294","DECAY_DATE":null,"TLE_LINE2":"2 48298  53.0568  73.3980 0001343  95.9047 264.2095 15.06396474 26859","ELEMENT_SET_NO":"999","ECCENTRICITY":"0.00013430","BSTAR":"0.00010251000000","ARG_OF_PERICENTER":"95.9047","MEAN_MOTION_DDOT":"0.0000000000000","MEAN_ANOMALY":"264.2095","REF_FRAME":"TEME","OBJECT_TYPE":"PAYLOAD","EPOCH":"2021-10-19T15:55:26.282496","OBJECT_ID":"2021-036Y","COUNTRY_CODE":"US","APOAPSIS":"548.154","RA_OF_ASC_NODE":"73.3980","CLASSIFICATION_TYPE":"U","SITE":"AFETR","MEAN_ELEMENT_THEORY":"SGP4","PERIOD":"95.592","SEMIMAJOR_AXIS":"6925.359","RCS_SIZE":"LARGE","MEAN_MOTION_DOT":"0.00001246","TIME_SYSTEM":"UTC","OBJECT_NAME":"STARLINK-2559","INCLINATION":"53.0568","MEAN_MOTION":"15.06396474","FILE":"3172644","TLE_LINE1":"1 48298U 21036Y   21292.66349864  .00001246  00000-0  10251-3 0  9990","NORAD_CAT_ID":"48298","GP_ID":"187631522","EPHEMERIS_TYPE":"0","LAUNCH_DATE":"2021-04-29"},{"ELEMENT_SET_NO":"999","ECCENTRICITY":"0.00014500","BSTAR":"0.00011712000000","DECAY_DATE":null,"TLE_LINE2":"2 48299  53.0581  72.5044 0001450 108.5142 251.6004 15.06401894 26889","ARG_OF_PERICENTER":"108.5142","REV_AT_EPOCH":"2688","CENTER_NAME":"EARTH","PERIAPSIS":"546.204","EPOCH":"2021-10-19T20:36:46.400832","OBJECT_TYPE":"PAYLOAD","COUNTRY_CODE":"US","OBJECT_ID":"2021-036Z","MEAN_MOTION_DDOT":"0.0000000000000","MEAN_ANOMALY":"251.6004","REF_FRAME":"TEME","SEMIMAJOR_AXIS":"6925.343","RCS_SIZE":"LARGE","MEAN_MOTION_DOT":"0.00001464","PERIOD":"95.592","OBJECT_NAME":"STARLINK-2557","TIME_SYSTEM":"UTC","APOAPSIS":"548.212","MEAN_ELEMENT_THEORY":"SGP4","RA_OF_ASC_NODE":"72.5044","CLASSIFICATION_TYPE":"U","SITE":"AFETR","GP_ID":"187631767","NORAD_CAT_ID":"48299","EPHEMERIS_TYPE":"0","LAUNCH_DATE":"2021-04-29","INCLINATION":"53.0581","FILE":"3172644","MEAN_MOTION":"15.06401894","TLE_LINE1":"1 48299U 21036Z   21292.85887038  .00001464  00000-0  11712-3 0  9997"},{"GP_ID":"187630020","NORAD_CAT_ID":"48300","EPHEMERIS_TYPE":"0","LAUNCH_DATE":"2021-04-29","INCLINATION":"53.0591","MEAN_MOTION":"15.06396856","FILE":"3172644","TLE_LINE1":"1 48300U 21036AA  21292.71786415 -.00000424  00000-0 -95760-5 0  9996","PERIOD":"95.592","SEMIMAJOR_AXIS":"6925.358","MEAN_MOTION_DOT":"-0.00000424","RCS_SIZE":"LARGE","TIME_SYSTEM":"UTC","OBJECT_NAME":"STARLINK-2538","APOAPSIS":"548.470","RA_OF_ASC_NODE":"83.1446","CLASSIFICATION_TYPE":"U","SITE":"AFETR","MEAN_ELEMENT_THEORY":"SGP4","OBJECT_TYPE":"PAYLOAD","EPOCH":"2021-10-19T17:13:43.462560","OBJECT_ID":"2021-036AA","COUNTRY_CODE":"US","MEAN_MOTION_DDOT":"0.0000000000000","MEAN_ANOMALY":"271.3311","REF_FRAME":"TEME","DECAY_DATE":null,"TLE_LINE2":"2 48300  53.0591  83.1446 0001801  88.7885 271.3311 15.06396856 26724","ELEMENT_SET_NO":"999","BSTAR":"-0.00000957600000","ECCENTRICITY":"0.00018010","ARG_OF_PERICENTER":"88.7885","CENTER_NAME":"EARTH","REV_AT_EPOCH":"2672","PERIAPSIS":"545.976"},{"COUNTRY_CODE":"US","OBJECT_ID":"2021-036AB","EPOCH":"2021-10-19T20:19:29.612928","OBJECT_TYPE":"PAYLOAD","REF_FRAME":"TEME","MEAN_ANOMALY":"276.1049","MEAN_MOTION_DDOT":"0.0000000000000","ARG_OF_PERICENTER":"84.0131","ELEMENT_SET_NO":"999","BSTAR":"-0.00001448700000","ECCENTRICITY":"0.00016800","DECAY_DATE":null,"TLE_LINE2":"2 48301  53.0542  82.5629 0001680  84.0131 276.1049 15.06398507 26732","PERIAPSIS":"546.055","REV_AT_EPOCH":"2673","CENTER_NAME":"EARTH","EPHEMERIS_TYPE":"0","LAUNCH_DATE":"2021-04-29","NORAD_CAT_ID":"48301","GP_ID":"187630771","TLE_LINE1":"1 48301U 21036AB  21292.84687052 -.00000497  00000-0 -14487-4 0  9994","INCLINATION":"53.0542","MEAN_MOTION":"15.06398507","FILE":"3172644","OBJECT_NAME":"STARLINK-2537","TIME_SYSTEM":"UTC","SEMIMAJOR_AXIS":"6925.353","MEAN_MOTION_DOT":"-0.00000497","RCS_SIZE":"LARGE","PERIOD":"95.592","MEAN_ELEMENT_THEORY":"SGP4","CLASSIFICATION_TYPE":"U","RA_OF_ASC_NODE":"82.5629","SITE":"AFETR","APOAPSIS":"548.382"},{"APOAPSIS":"548.182","SITE":"AFETR","RA_OF_ASC_NODE":"82.8728","CLASSIFICATION_TYPE":"U","MEAN_ELEMENT_THEORY":"SGP4","PERIOD":"95.592","RCS_SIZE":"LARGE","MEAN_MOTION_DOT":"0.00001740","SEMIMAJOR_AXIS":"6925.327","TIME_SYSTEM":"UTC","OBJECT_NAME":"STARLINK-2556","FILE":"3172644","MEAN_MOTION":"15.06407116","INCLINATION":"53.0565","TLE_LINE1":"1 48302U 21036AC  21292.77683582  .00001740  00000-0  13568-3 0  9999","NORAD_CAT_ID":"48302","GP_ID":"187631023","LAUNCH_DATE":"2021-04-29","EPHEMERIS_TYPE":"0","CENTER_NAME":"EARTH","REV_AT_EPOCH":"2672","PERIAPSIS":"546.201","TLE_LINE2":"2 48302  53.0565  82.8728 0001430  73.4194 286.6952 15.06407116 26720","DECAY_DATE":null,"ECCENTRICITY":"0.00014300","BSTAR":"0.00013568000000","ELEMENT_SET_NO":"999","ARG_OF_PERICENTER":"73.4194","MEAN_MOTION_DDOT":"0.0000000000000","MEAN_ANOMALY":"286.6952","REF_FRAME":"TEME","OBJECT_TYPE":"PAYLOAD","EPOCH":"2021-10-19T18:38:38.614848","OBJECT_ID":"2021-036AC","COUNTRY_CODE":"US"},{"PERIOD":"95.592","RCS_SIZE":"LARGE","MEAN_MOTION_DOT":"0.00000406","SEMIMAJOR_AXIS":"6925.339","TIME_SYSTEM":"UTC","OBJECT_NAME":"STARLINK-2530","APOAPSIS":"548.534","SITE":"AFETR","CLASSIFICATION_TYPE":"U","RA_OF_ASC_NODE":"83.1874","MEAN_ELEMENT_THEORY":"SGP4","NORAD_CAT_ID":"48303","GP_ID":"187631268","LAUNCH_DATE":"2021-04-29","EPHEMERIS_TYPE":"0","FILE":"3172644","MEAN_MOTION":"15.06403281","INCLINATION":"53.0545","TLE_LINE1":"1 48303U 21036AD  21292.70680240  .00000406  00000-0  46156-4 0  9999","TLE_LINE2":"2 48303  53.0545  83.1874 0001921  89.9457 270.1753 15.06403281 26719","DECAY_DATE":null,"BSTAR":"0.00004615600000","ECCENTRICITY":"0.00019210","ELEMENT_SET_NO":"999","ARG_OF_PERICENTER":"89.9457","CENTER_NAME":"EARTH","REV_AT_EPOCH":"2671","PERIAPSIS":"545.873","OBJECT_TYPE":"PAYLOAD","EPOCH":"2021-10-19T16:57:47.727360","OBJECT_ID":"2021-036AD","COUNTRY_CODE":"US","MEAN_ANOMALY":"270.1753","MEAN_MOTION_DDOT":"0.0000000000000","REF_FRAME":"TEME"},{"PERIAPSIS":"545.973","REV_AT_EPOCH":"2671","CENTER_NAME":"EARTH","ARG_OF_PERICENTER":"75.8332","ECCENTRICITY":"0.00018070","BSTAR":"0.00006743400000","ELEMENT_SET_NO":"999","TLE_LINE2":"2 48304  53.0556  83.2095 0001807  75.8332 284.2858 15.06396399 26710","DECAY_DATE":null,"REF_FRAME":"TEME","MEAN_MOTION_DDOT":"0.0000000000000","MEAN_ANOMALY":"284.2858","COUNTRY_CODE":"US","OBJECT_ID":"2021-036AE","EPOCH":"2021-10-19T16:52:30.902016","OBJECT_TYPE":"PAYLOAD","MEAN_ELEMENT_THEORY":"SGP4","SITE":"AFETR","CLASSIFICATION_TYPE":"U","RA_OF_ASC_NODE":"83.2095","APOAPSIS":"548.476","OBJECT_NAME":"STARLINK-2524","TIME_SYSTEM":"UTC","MEAN_MOTION_DOT":"0.00000723","RCS_SIZE":"LARGE","SEMIMAJOR_AXIS":"6925.360","PERIOD":"95.592","TLE_LINE1":"1 48304U 21036AE  21292.70313544  .00000723  00000-0  67434-4 0  9994","MEAN_MOTION":"15.06396399","FILE":"3172644","INCLINATION":"53.0556","LAUNCH_DATE":"2021-04-29","EPHEMERIS_TYPE":"0","NORAD_CAT_ID":"48304","GP_ID":"187630521"},{"CENTER_NAME":"EARTH","REV_AT_EPOCH":"2673","PERIAPSIS":"545.868","DECAY_DATE":null,"TLE_LINE2":"2 48305  53.0552  82.6246 0001947  93.7949 266.3263 15.06399156 26733","ELEMENT_SET_NO":"999","BSTAR":"0.00000639890000","ECCENTRICITY":"0.00019470","ARG_OF_PERICENTER":"93.7949","MEAN_MOTION_DDOT":"0.0000000000000","MEAN_ANOMALY":"266.3263","REF_FRAME":"TEME","OBJECT_TYPE":"PAYLOAD","EPOCH":"2021-10-19T19:58:15.706272","OBJECT_ID":"2021-036AF","COUNTRY_CODE":"US","APOAPSIS":"548.565","CLASSIFICATION_TYPE":"U","RA_OF_ASC_NODE":"82.6246","SITE":"AFETR","MEAN_ELEMENT_THEORY":"SGP4","PERIOD":"95.592","SEMIMAJOR_AXIS":"6925.351","RCS_SIZE":"LARGE","MEAN_MOTION_DOT":"-0.00000186","TIME_SYSTEM":"UTC","OBJECT_NAME":"STARLINK-2519","INCLINATION":"53.0552","MEAN_MOTION":"15.06399156","FILE":"3172644","TLE_LINE1":"1 48305U 21036AF  21292.83212623 -.00000186  00000-0  63989-5 0  9991","NORAD_CAT_ID":"48305","GP_ID":"187630271","EPHEMERIS_TYPE":"0","LAUNCH_DATE":"2021-04-29"},{"OBJECT_TYPE":"PAYLOAD","EPOCH":"2021-10-19T16:41:53.490336","OBJECT_ID":"2021-036AG","COUNTRY_CODE":"US","MEAN_ANOMALY":"266.8769","MEAN_MOTION_DDOT":"0.0000000000000","REF_FRAME":"TEME","DECAY_DATE":null,"TLE_LINE2":"2 48306  53.0561  83.2456 0001791  93.2425 266.8769 15.06402542 26713","ELEMENT_SET_NO":"999","BSTAR":"0.00006465100000","ECCENTRICITY":"0.00017910","ARG_OF_PERICENTER":"93.2425","CENTER_NAME":"EARTH","REV_AT_EPOCH":"2671","PERIAPSIS":"545.965","GP_ID":"187631523","NORAD_CAT_ID":"48306","EPHEMERIS_TYPE":"0","LAUNCH_DATE":"2021-04-29","INCLINATION":"53.0561","FILE":"3172644","MEAN_MOTION":"15.06402542","TLE_LINE1":"1 48306U 21036AG  21292.69575799  .00000682  00000-0  64651-4 0  9998","PERIOD":"95.592","SEMIMAJOR_AXIS":"6925.341","RCS_SIZE":"LARGE","MEAN_MOTION_DOT":"0.00000682","TIME_SYSTEM":"UTC","OBJECT_NAME":"STARLINK-2523","APOAPSIS":"548.446","RA_OF_ASC_NODE":"83.2456","CLASSIFICATION_TYPE":"U","SITE":"AFETR","MEAN_ELEMENT_THEORY":"SGP4"}];
